{
  "type": "FeatureCollection",
  "features": [
    {
      "type": "Feature",
      "properties": {
        "norad_id": 54741,
        "name": "GALAXY 35 (G-35)",
        "group": "intelsat",
        "lat": -0.016354448147087818,
        "lon": -90.49501073989362,
        "alt_km": 35775.15050328779,
        "timestamp": "2025-12-09T18:55:16.906755+00:00",
        "meta_object_name": "GALAXY 35 (G-35)",
        "meta_object_id": "2022-170A",
        "meta_epoch": "2025-12-09T12:23:46.557312",
        "meta_mean_motion": 1.00271041,
        "meta_eccentricity": 0.00026435,
        "meta_inclination": 0.0265,
        "meta_ra_of_asc_node": 90.9094,
        "meta_arg_of_pericenter": 174.1639,
        "meta_mean_anomaly": 266.2888,
        "meta_ephemeris_type": 0,
        "meta_classification_type": "U",
        "meta_norad_cat_id": 54741,
        "meta_element_set_no": 999,
        "meta_rev_at_epoch": 1099,
        "meta_bstar": 0,
        "meta_mean_motion_dot": -1.6e-06,
        "meta_mean_motion_ddot": 0,
        "tle_line1": "1 54741U 22170A   25343.51651108 -.00000160  00000+0  00000+0 0  9993",
        "tle_line2": "2 54741   0.0265  90.9094 0002643 174.1639 266.2888  1.00271041 10998"
      },
      "geometry": {
        "type": "Point",
        "coordinates": [
          -90.49501073989362,
          -0.016354448147087818
        ]
      }
    },
    {
      "type": "Feature",
      "properties": {
        "norad_id": 54742,
        "name": "GALAXY 36 (G-36)",
        "group": "intelsat",
        "lat": -0.02336824545720367,
        "lon": -86.41472651916578,
        "alt_km": 35784.044094592275,
        "timestamp": "2025-12-09T18:55:16.906766+00:00",
        "meta_object_name": "GALAXY 36 (G-36)",
        "meta_object_id": "2022-170B",
        "meta_epoch": "2025-12-09T12:25:42.117312",
        "meta_mean_motion": 1.00270711,
        "meta_eccentricity": 5.692e-05,
        "meta_inclination": 0.009,
        "meta_ra_of_asc_node": 28.1287,
        "meta_arg_of_pericenter": 256.8245,
        "meta_mean_anomaly": 250.976,
        "meta_ephemeris_type": 0,
        "meta_classification_type": "U",
        "meta_norad_cat_id": 54742,
        "meta_element_set_no": 999,
        "meta_rev_at_epoch": 1087,
        "meta_bstar": 0,
        "meta_mean_motion_dot": -1.83e-06,
        "meta_mean_motion_ddot": 0,
        "tle_line1": "1 54742U 22170B   25343.51784858 -.00000183  00000+0  00000+0 0  9998",
        "tle_line2": "2 54742   0.0090  28.1287 0000569 256.8245 250.9760  1.00270711 10877"
      },
      "geometry": {
        "type": "Point",
        "coordinates": [
          -86.41472651916578,
          -0.02336824545720367
        ]
      }
    },
    {
      "type": "Feature",
      "properties": {
        "norad_id": 57493,
        "name": "GALAXY 37 (G-37)",
        "group": "intelsat",
        "lat": -0.029585840310658,
        "lon": -124.41828060781646,
        "alt_km": 35777.42697717301,
        "timestamp": "2025-12-09T18:55:16.906777+00:00",
        "meta_object_name": "GALAXY 37 (G-37)",
        "meta_object_id": "2023-112A",
        "meta_epoch": "2025-12-09T12:59:43.247328",
        "meta_mean_motion": 1.00271682,
        "meta_eccentricity": 0.00023291,
        "meta_inclination": 0.0108,
        "meta_ra_of_asc_node": 343.5246,
        "meta_arg_of_pericenter": 280.5272,
        "meta_mean_anomaly": 242.4124,
        "meta_ephemeris_type": 0,
        "meta_classification_type": "U",
        "meta_norad_cat_id": 57493,
        "meta_element_set_no": 999,
        "meta_rev_at_epoch": 864,
        "meta_bstar": 0,
        "meta_mean_motion_dot": 5e-07,
        "meta_mean_motion_ddot": 0,
        "tle_line1": "1 57493U 23112A   25343.54147277  .00000050  00000+0  00000+0 0  9994",
        "tle_line2": "2 57493   0.0108 343.5246 0002329 280.5272 242.4124  1.00271682  8642"
      },
      "geometry": {
        "type": "Point",
        "coordinates": [
          -124.41828060781646,
          -0.029585840310658
        ]
      }
    }
  ]
}